{
    "links": {
        "self": "http://www.neowsapp.com/rest/v1/neo/3611409?api_key=iIulBulltgU6a56xZRHN4H3l9WmuAYTsLGpBGhQ2"
    },
    "id": "3611409",
    "neo_reference_id": "3611409",
    "name": "(2012 UF)",
    "designation": "2012 UF",
    "nasa_jpl_url": "http://ssd.jpl.nasa.gov/sbdb.cgi?sstr=3611409",
    "absolute_magnitude_h": 26.3,
    "estimated_diameter": {
        "kilometers": {
            "estimated_diameter_min": 0.0146067964,
            "estimated_diameter_max": 0.0326617897
        },
        "meters": {
            "estimated_diameter_min": 14.6067964271,
            "estimated_diameter_max": 32.6617897446
        },
        "miles": {
            "estimated_diameter_min": 0.0090762397,
            "estimated_diameter_max": 0.020295089
        },
        "feet": {
            "estimated_diameter_min": 47.92256199,
            "estimated_diameter_max": 107.1581062656
        }
    },
    "is_potentially_hazardous_asteroid": false,
    "close_approach_data": [
        {
            "close_approach_date": "1932-12-16",
            "close_approach_date_full": "1932-Dec-16 22:57",
            "epoch_date_close_approach": -1168909380000,
            "relative_velocity": {
                "kilometers_per_second": "16.4128971542",
                "kilometers_per_hour": "59086.4297552626",
                "miles_per_hour": "36714.0096443186"
            },
            "miss_distance": {
                "astronomical": "0.3722344426",
                "lunar": "144.7991981714",
                "kilometers": "55685479.753597262",
                "miles": "34601352.6328437356"
            },
            "orbiting_body": "Earth"
        },
        {
            "close_approach_date": "2004-07-30",
            "close_approach_date_full": "2004-Jul-30 10:20",
            "epoch_date_close_approach": 1091182800000,
            "relative_velocity": {
                "kilometers_per_second": "8.8948620938",
                "kilometers_per_hour": "32021.5035376931",
                "miles_per_hour": "19896.9170176294"
            },
            "miss_distance": {
                "astronomical": "0.0987851283",
                "lunar": "38.4274149087",
                "kilometers": "14778044.781356721",
                "miles": "9182651.2219399098"
            },
            "orbiting_body": "Mars"
        },
        {
            "close_approach_date": "2012-10-17",
            "close_approach_date_full": "2012-Oct-17 09:43",
            "epoch_date_close_approach": 1350466980000,
            "relative_velocity": {
                "kilometers_per_second": "6.5982997397",
                "kilometers_per_hour": "23753.8790628763",
                "miles_per_hour": "14759.7366877078"
            },
            "miss_distance": {
                "astronomical": "0.0169074617",
                "lunar": "6.5770026013",
                "kilometers": "2529320.257426579",
                "miles": "1571646.7297376302"
            },
            "orbiting_body": "Earth"
        }
    ],
    "orbital_data": {
        "orbit_id": "6",
        "orbit_determination_date": "2019-07-16 06:14:57",
        "first_observation_date": "2012-10-15",
        "last_observation_date": "2012-10-17",
        "data_arc_in_days": 2,
        "observations_used": 29,
        "orbit_uncertainty": "7",
        "minimum_orbit_intersection": ".0173751",
        "jupiter_tisserand_invariant": "4.146",
        "epoch_osculation": "2459000.5",
        "eccentricity": ".3997635381000602",
        "semi_major_axis": "1.670968984959719",
        "inclination": "6.664451719836532",
        "ascending_node_longitude": "21.763304945677",
        "orbital_period": "788.9527791374348",
        "perihelion_distance": "1.002976511476756",
        "perihelion_argument": "17.37125299863213",
        "aphelion_distance": "2.338961458442683",
        "perihelion_time": "2459387.019603504332",
        "mean_anomaly": "183.6306900221716",
        "mean_motion": ".4563010734224036",
        "equinox": "J2000",
        "orbit_class": {
            "orbit_class_type": "APO",
            "orbit_class_description": "Near-Earth asteroid orbits which cross the Earth’s orbit similar to that of 1862 Apollo",
            "orbit_class_range": "a (semi-major axis) > 1.0 AU; q (perihelion) < 1.017 AU"
        }
    },
    "is_sentry_object": false
}